STARLINK-32359          
1 61957U 24209U   26068.47922661  .00014063  00000+0  48615-3 0  9994
2 61957  53.1574 143.4521 0001179 110.0444 250.0684 15.30190850 74881
NUSHSAT1                
1 63211U 25052B   26068.64700493  .00023034  00000+0  74857-3 0  9997
2 63211  97.4095 325.7239 0005501  84.7512 275.4357 15.31903202 54882
